{"type": "FeatureCollection", "features": [{"type": "Feature", "properties": {"norad_id": 28054, "name": "DMSP 5D-3 F16 (USA 172)", "group": "weather", "lat": 70.02677804492764, "lon": -26.84305610711129, "alt_km": 837.9032318669788, "timestamp": "2025-12-07T14:37:04.852640+00:00", "meta": {"OBJECT_NAME": "DMSP 5D-3 F16 (USA 172)", "OBJECT_ID": "2003-048A", "EPOCH": "2025-12-06T23:16:51.413664", "MEAN_MOTION": 14.14421071, "ECCENTRICITY": 0.00067336, "INCLINATION": 99.0049, "RA_OF_ASC_NODE": 358.3815, "ARG_OF_PERICENTER": 338.6482, "MEAN_ANOMALY": 81.2546, "EPHEMERIS_TYPE": 0, "CLASSIFICATION_TYPE": "U", "NORAD_CAT_ID": 28054, "ELEMENT_SET_NO": 999, "REV_AT_EPOCH": 14231, "BSTAR": 0.00016084776, "MEAN_MOTION_DOT": 2.62e-06, "MEAN_MOTION_DDOT": 0}, "tle": {"line1": "1 28054U 03048A   25340.97003951  .00000262  00000+0  16085-3 0  9994", "line2": "2 28054  99.0049 358.3815 0006733 338.6482  81.2546 14.14421071142310"}}, "geometry": {"type": "Point", "coordinates": [-26.84305610711129, 70.02677804492764]}}, {"type": "Feature", "properties": {"norad_id": 28912, "name": "METEOSAT-9 (MSG-2)", "group": "weather", "lat": -8.605209771625171, "lon": -18.25569979705075, "alt_km": 35788.75880933248, "timestamp": "2025-12-07T14:37:04.852689+00:00", "meta": {"OBJECT_NAME": "METEOSAT-9 (MSG-2)", "OBJECT_ID": "2005-049B", "EPOCH": "2025-12-06T20:43:46.094016", "MEAN_MOTION": 1.0027315, "ECCENTRICITY": 0.00039617, "INCLINATION": 8.926, "RA_OF_ASC_NODE": 56.0299, "ARG_OF_PERICENTER": 188.459, "MEAN_ANOMALY": 187.9596, "EPHEMERIS_TYPE": 0, "CLASSIFICATION_TYPE": "U", "NORAD_CAT_ID": 28912, "ELEMENT_SET_NO": 999, "REV_AT_EPOCH": 507, "BSTAR": 0, "MEAN_MOTION_DOT": 1.25e-06, "MEAN_MOTION_DDOT": 0}, "tle": {"line1": "1 28912U 05049B   25340.86372794  .00000125  00000+0  00000+0 0  9996", "line2": "2 28912   8.9260  56.0299 0003961 188.4590 187.9596  1.00273150  5070"}}, "geometry": {"type": "Point", "coordinates": [-18.25569979705075, -8.605209771625171]}}, {"type": "Feature", "properties": {"norad_id": 29522, "name": "DMSP 5D-3 F17 (USA 191)", "group": "weather", "lat": 3.352717515334388, "lon": -13.411405890158568, "alt_km": 848.6526149713045, "timestamp": "2025-12-07T14:37:04.852706+00:00", "meta": {"OBJECT_NAME": "DMSP 5D-3 F17 (USA 191)", "OBJECT_ID": "2006-050A", "EPOCH": "2025-12-06T23:19:39.084960", "MEAN_MOTION": 14.14915873, "ECCENTRICITY": 0.00092405, "INCLINATION": 98.7393, "RA_OF_ASC_NODE": 346.4811, "ARG_OF_PERICENTER": 242.6623, "MEAN_ANOMALY": 117.3611, "EPHEMERIS_TYPE": 0, "CLASSIFICATION_TYPE": "U", "NORAD_CAT_ID": 29522, "ELEMENT_SET_NO": 999, "REV_AT_EPOCH": 98523, "BSTAR": 0.00018634193, "MEAN_MOTION_DOT": 3.17e-06, "MEAN_MOTION_DDOT": 0}, "tle": {"line1": "1 29522U 06050A   25340.97198015  .00000317  00000+0  18634-3 0  9990", "line2": "2 29522  98.7393 346.4811 0009240 242.6623 117.3611 14.14915873985238"}}, "geometry": {"type": "Point", "coordinates": [-13.411405890158568, 3.352717515334388]}}, {"type": "Feature", "properties": {"norad_id": 32958, "name": "FENGYUN 3A", "group": "weather", "lat": -7.294382555584558, "lon": -77.63711971090788, "alt_km": 825.5287198447677, "timestamp": "2025-12-07T14:37:04.852719+00:00", "meta": {"OBJECT_NAME": "FENGYUN 3A", "OBJECT_ID": "2008-026A", "EPOCH": "2025-12-06T20:02:39.189120", "MEAN_MOTION": 14.19511742, "ECCENTRICITY": 0.00081758, "INCLINATION": 98.6689, "RA_OF_ASC_NODE": 280.4865, "ARG_OF_PERICENTER": 328.837, "MEAN_ANOMALY": 31.2321, "EPHEMERIS_TYPE": 0, "CLASSIFICATION_TYPE": "U", "NORAD_CAT_ID": 32958, "ELEMENT_SET_NO": 999, "REV_AT_EPOCH": 90811, "BSTAR": 0.00013539268, "MEAN_MOTION_DOT": 2.42e-06, "MEAN_MOTION_DDOT": 0}, "tle": {"line1": "1 32958U 08026A   25340.83517580  .00000242  00000+0  13539-3 0  9995", "line2": "2 32958  98.6689 280.4865 0008175 328.8370  31.2321 14.19511742908116"}}, "geometry": {"type": "Point", "coordinates": [-77.63711971090788, -7.294382555584558]}}, {"type": "Feature", "properties": {"norad_id": 35491, "name": "GOES 14", "group": "weather", "lat": 1.1480260809130698, "lon": -172.45272067818013, "alt_km": 35774.676169506085, "timestamp": "2025-12-07T14:37:04.852734+00:00", "meta": {"OBJECT_NAME": "GOES 14", "OBJECT_ID": "2009-033A", "EPOCH": "2025-12-06T21:42:40.451904", "MEAN_MOTION": 1.00272901, "ECCENTRICITY": 0.00041556, "INCLINATION": 1.1835, "RA_OF_ASC_NODE": 85.4757, "ARG_OF_PERICENTER": 153.443, "MEAN_ANOMALY": 54.3698, "EPHEMERIS_TYPE": 0, "CLASSIFICATION_TYPE": "U", "NORAD_CAT_ID": 35491, "ELEMENT_SET_NO": 999, "REV_AT_EPOCH": 466, "BSTAR": 0, "MEAN_MOTION_DOT": -6.3e-07, "MEAN_MOTION_DDOT": 0}, "tle": {"line1": "1 35491U 09033A   25340.90463486 -.00000063  00000+0  00000+0 0  9999", "line2": "2 35491   1.1835  85.4757 0004155 153.4430  54.3698  1.00272901  4666"}}, "geometry": {"type": "Point", "coordinates": [-172.45272067818013, 1.1480260809130698]}}, {"type": "Feature", "properties": {"norad_id": 35951, "name": "DMSP 5D-3 F18 (USA 210)", "group": "weather", "lat": -52.743584727973406, "lon": 126.17041303451359, "alt_km": 858.1426825969384, "timestamp": "2025-12-07T14:37:04.852748+00:00", "meta": {"OBJECT_NAME": "DMSP 5D-3 F18 (USA 210)", "OBJECT_ID": "2009-057A", "EPOCH": "2025-12-06T22:14:31.251840", "MEAN_MOTION": 14.14763767, "ECCENTRICITY": 0.00121244, "INCLINATION": 98.8827, "RA_OF_ASC_NODE": 317.3568, "ARG_OF_PERICENTER": 77.8531, "MEAN_ANOMALY": 282.4, "EPHEMERIS_TYPE": 0, "CLASSIFICATION_TYPE": "U", "NORAD_CAT_ID": 35951, "ELEMENT_SET_NO": 999, "REV_AT_EPOCH": 83240, "BSTAR": 0.00023718194, "MEAN_MOTION_DOT": 4.13e-06, "MEAN_MOTION_DDOT": 0}, "tle": {"line1": "1 35951U 09057A   25340.92675060  .00000413  00000+0  23718-3 0  9994", "line2": "2 35951  98.8827 317.3568 0012124  77.8531 282.4000 14.14763767832400"}}, "geometry": {"type": "Point", "coordinates": [126.17041303451359, -52.743584727973406]}}, {"type": "Feature", "properties": {"norad_id": 36411, "name": "EWS-G2 (GOES 15)", "group": "weather", "lat": -0.7931527559147326, "lon": -2.5838980826136004, "alt_km": 35791.03549125534, "timestamp": "2025-12-07T14:37:04.852761+00:00", "meta": {"OBJECT_NAME": "EWS-G2 (GOES 15)", "OBJECT_ID": "2010-008A", "EPOCH": "2025-12-06T15:40:13.705824", "MEAN_MOTION": 1.00268345, "ECCENTRICITY": 0.000602, "INCLINATION": 0.7984, "RA_OF_ASC_NODE": 86.0287, "ARG_OF_PERICENTER": 172.4317, "MEAN_ANOMALY": 113.7488, "EPHEMERIS_TYPE": 0, "CLASSIFICATION_TYPE": "U", "NORAD_CAT_ID": 36411, "ELEMENT_SET_NO": 999, "REV_AT_EPOCH": 5770, "BSTAR": 0, "MEAN_MOTION_DOT": 4.4e-07, "MEAN_MOTION_DDOT": 0}, "tle": {"line1": "1 36411U 10008A   25340.65293641  .00000044  00000+0  00000+0 0  9990", "line2": "2 36411   0.7984  86.0287 0006020 172.4317 113.7488  1.00268345 57709"}}, "geometry": {"type": "Point", "coordinates": [-2.5838980826136004, -0.7931527559147326]}}, {"type": "Feature", "properties": {"norad_id": 36744, "name": "COMS 1", "group": "weather", "lat": -1.0208717328575951, "lon": 64.11425120754528, "alt_km": 35790.9394025407, "timestamp": "2025-12-07T14:37:04.852774+00:00", "meta": {"OBJECT_NAME": "COMS 1", "OBJECT_ID": "2010-032A", "EPOCH": "2025-12-06T20:17:51.814176", "MEAN_MOTION": 1.00271499, "ECCENTRICITY": 0.00011842, "INCLINATION": 4.3265, "RA_OF_ASC_NODE": 78.0619, "ARG_OF_PERICENTER": 191.6112, "MEAN_ANOMALY": 238.845, "EPHEMERIS_TYPE": 0, "CLASSIFICATION_TYPE": "U", "NORAD_CAT_ID": 36744, "ELEMENT_SET_NO": 999, "REV_AT_EPOCH": 4916, "BSTAR": 0, "MEAN_MOTION_DOT": -3.4e-06, "MEAN_MOTION_DDOT": 0}, "tle": {"line1": "1 36744U 10032A   25340.84573859 -.00000340  00000+0  00000+0 0  9999", "line2": "2 36744   4.3265  78.0619 0001184 191.6112 238.8450  1.00271499 49165"}}, "geometry": {"type": "Point", "coordinates": [64.11425120754528, -1.0208717328575951]}}, {"type": "Feature", "properties": {"norad_id": 37214, "name": "FENGYUN 3B", "group": "weather", "lat": -17.515041764405463, "lon": -161.31373569742652, "alt_km": 863.9255490718078, "timestamp": "2025-12-07T14:37:04.852786+00:00", "meta": {"OBJECT_NAME": "FENGYUN 3B", "OBJECT_ID": "2010-059A", "EPOCH": "2025-12-06T22:41:18.501792", "MEAN_MOTION": 14.1478736, "ECCENTRICITY": 0.00222734, "INCLINATION": 98.9917, "RA_OF_ASC_NODE": 20.8821, "ARG_OF_PERICENTER": 14.1632, "MEAN_ANOMALY": 44.828, "EPHEMERIS_TYPE": 0, "CLASSIFICATION_TYPE": "U", "NORAD_CAT_ID": 37214, "ELEMENT_SET_NO": 999, "REV_AT_EPOCH": 78024, "BSTAR": 0.00013180187, "MEAN_MOTION_DOT": 2.09e-06, "MEAN_MOTION_DDOT": 0}, "tle": {"line1": "1 37214U 10059A   25340.94535303  .00000209  00000+0  13180-3 0  9994", "line2": "2 37214  98.9917  20.8821 0022273  14.1632  44.8280 14.14787360780244"}}, "geometry": {"type": "Point", "coordinates": [-161.31373569742652, -17.515041764405463]}}, {"type": "Feature", "properties": {"norad_id": 37849, "name": "SUOMI NPP", "group": "weather", "lat": -47.93599819134101, "lon": -71.14615144747492, "alt_km": 835.2609449793526, "timestamp": "2025-12-07T14:37:04.852797+00:00", "meta": {"OBJECT_NAME": "SUOMI NPP", "OBJECT_ID": "2011-061A", "EPOCH": "2025-12-06T21:55:49.235520", "MEAN_MOTION": 14.19511597, "ECCENTRICITY": 0.00020446, "INCLINATION": 98.7764, "RA_OF_ASC_NODE": 278.3081, "ARG_OF_PERICENTER": 130.4437, "MEAN_ANOMALY": 229.6917, "EPHEMERIS_TYPE": 0, "CLASSIFICATION_TYPE": "U", "NORAD_CAT_ID": 37849, "ELEMENT_SET_NO": 999, "REV_AT_EPOCH": 73116, "BSTAR": 0.00011571054, "MEAN_MOTION_DOT": 2e-06, "MEAN_MOTION_DDOT": 0}, "tle": {"line1": "1 37849U 11061A   25340.91376430  .00000200  00000+0  11571-3 0  9996", "line2": "2 37849  98.7764 278.3081 0002044 130.4437 229.6917 14.19511597731162"}}, "geometry": {"type": "Point", "coordinates": [-71.14615144747492, -47.93599819134101]}}]}